OBJECT_NAME,OBJECT_ID,EPOCH,MEAN_MOTION,ECCENTRICITY,INCLINATION,RA_OF_ASC_NODE,ARG_OF_PERICENTER,MEAN_ANOMALY,EPHEMERIS_TYPE,CLASSIFICATION_TYPE,NORAD_CAT_ID,ELEMENT_SET_NO,REV_AT_EPOCH,BSTAR,MEAN_MOTION_DOT,MEAN_MOTION_DDOT
GPS BIIR-5  (PRN 22),2000-040A,2026-07-03T11:40:40.649376,2.00557835,.01207584,54.8498,214.5148,302.6092,229.8904,0,U,26407,999,19027,0,.67E-6,0
GPS BIIR-8  (PRN 16),2003-005A,2026-07-04T01:31:03.707904,2.00559687,.0148096,54.8802,214.2982,53.1273,311.8752,0,U,27663,999,17165,0,.7E-6,0
GPS BIIR-11 (PRN 19),2004-009A,2026-07-01T22:09:02.124864,2.00554338,.0116696,54.8173,275.0916,173.7601,238.6833,0,U,28190,999,16324,0,-.19E-6,0
GPS BIIR-13 (PRN 02),2004-045A,2026-07-03T18:00:25.647840,2.00556712,.01700019,55.1258,324.2295,316.7952,40.0341,0,U,28474,999,15875,0,-.71E-6,0
GPS BIIRM-1 (PRN 17),2005-038A,2026-07-02T19:26:11.143680,2.00564684,.01280767,54.8653,272.5467,296.2867,65.7673,0,U,28874,999,15215,0,-.14E-6,0
INMARSAT 4-F2 (SOUTHPAN/PRN 122),2005-044A,2026-07-03T13:07:51.549888,1.00269985,.00031195,5.1157,43.6643,50.9964,167.3520,0,U,28899,999,7568,0,-.252E-5,0
GPS BIIRM-2 (PRN 31),2006-042A,2026-07-03T23:04:14.105568,2.00568928,.01069463,54.7124,150.6730,54.8662,317.3308,0,U,29486,999,14473,0,.65E-6,0
GPS BIIRM-3 (PRN 12),2006-052A,2026-07-02T09:01:37.111008,2.00559043,.0084872,54.9335,213.4040,90.9430,270.0973,0,U,29601,999,14371,0,.66E-6,0
GPS BIIRM-4 (PRN 15),2007-047A,2026-07-03T16:17:16.802016,2.00554543,.01673855,54.1070,79.3860,87.7388,274.2261,0,U,32260,999,13714,0,-.21E-6,0
COSMOS 2433 (720),2007-052A,2026-07-02T20:53:21.352992,2.13104490,.00030734,65.5669,315.4057,199.3999,160.5914,0,U,32275,999,14539,0,-.48E-6,0
COSMOS 2432 (719),2007-052B,2026-07-04T02:45:12.820608,2.13103452,.00074607,65.5822,315.4920,326.1716,212.2631,0,U,32276,999,14544,0,-.44E-6,0
GPS BIIRM-5 (PRN 29),2007-062A,2026-07-01T17:56:32.340192,2.00561025,.00359136,55.0200,273.5670,166.6056,6.7740,0,U,32384,999,13580,0,-.16E-6,0
COSMOS 2434 (721),2007-065A,2026-07-03T11:15:16.035840,2.13101308,.00012873,64.3197,191.3666,326.1242,22.8128,0,U,32393,999,14411,0,.87E-6,0
COSMOS 2436 (723),2007-065C,2026-06-30T14:26:22.399296,2.13100248,.00172892,64.3275,191.5357,353.5646,87.9496,0,U,32395,999,14401,0,.8E-6,0
GPS BIIRM-6 (PRN 07),2008-012A,2026-07-03T02:09:25.323552,2.00572912,.0211525,54.4991,149.2896,248.0217,109.6866,0,U,32711,999,13407,0,.54E-6,0
GPS BIIRM-8 (PRN 05),2009-043A,2026-07-03T14:10:40.558080,2.00553492,.00538086,56.2206,26.8080,83.8983,286.3105,0,U,35752,999,12369,0,-.61E-6,0
COSMOS 2456 (730),2009-070A,2026-07-02T16:05:51.136800,2.13103720,.00038355,65.0199,70.4441,338.5659,276.2480,0,U,36111,999,12875,0,-.11E-6,0
COSMOS 2457 (733),2009-070B,2026-07-02T21:16:42.710880,2.13101401,.00035865,65.0059,70.2800,124.2837,63.4116,0,U,36112,999,12876,0,-.11E-6,0
COSMOS 2460 (732),2010-007C,2026-06-30T01:20:32.777088,2.13101843,.00019507,65.4124,314.0307,124.3103,53.7611,0,U,36402,999,12700,0,-.64E-6,0
GPS BIIF-1  (PRN 25),2010-022A,2026-07-04T03:52:51.782880,2.00563270,.01265208,54.2694,207.8783,66.1429,115.6659,0,U,36585,999,11793,0,.75E-6,0
BEIDOU-2 IGSO-1 (C06),2010-036A,2026-07-03T21:32:05.585568,1.00267443,.00589888,54.3060,162.8088,225.1324,324.4079,0,U,36828,999,5826,0,-.8E-6,0
BEIDOU-2 G4 (C04),2010-057A,2026-07-04T02:40:13.300320,1.00271276,.0004925,3.6864,68.8473,188.1391,225.1693,0,U,37210,999,5746,0,-.102E-5,0
BEIDOU-2 IGSO-2 (C07),2010-068A,2026-07-02T16:12:29.062368,1.00278505,.00565896,47.5191,271.6399,213.9221,146.5191,0,U,37256,999,5695,0,-.187E-5,0
BEIDOU-2 IGSO-3 (C08),2011-013A,2026-07-03T12:44:00.131712,1.00264340,.00352438,62.4298,39.9979,183.8660,355.7772,0,U,37384,999,5582,0,-.161E-5,0
GSAT-8 (GAGAN/PRN 127),2011-022A,2026-07-04T03:53:06.758592,1.00271283,.00020907,2.1722,81.6274,166.7391,147.1810,0,U,37605,999,5338,0,.95E-6,0
BEIDOU-2 IGSO-4 (C09),2011-038A,2026-07-03T22:32:21.688224,1.00282089,.01598362,54.6040,165.5238,231.3868,317.1483,0,U,37763,999,5481,0,.29E-6,0
GSAT0101 (GALILEO-PFM),2011-060A,2026-07-03T06:32:47.607936,1.70475789,.00026569,56.9888,341.3256,57.8189,302.2010,0,U,37846,999,9139,0,-.76E-6,0
GSAT0102 (GALILEO-FM2),2011-060B,2026-07-03T18:53:16.727424,1.70476028,.00025222,56.9894,341.3121,12.9231,348.3249,0,U,37847,999,9141,0,-.75E-6,0
COSMOS 2476 (744),2011-064A,2026-07-03T15:11:25.405152,2.13104036,.00223858,65.2791,72.3163,237.0520,304.2644,0,U,37867,999,11411,0,-.8E-7,0
COSMOS 2477 (745),2011-064B,2026-07-03T09:37:38.495136,2.13103279,.00194856,65.2853,72.4036,238.2011,305.5847,0,U,37868,999,11410,0,-.8E-7,0
COSMOS 2475 (743),2011-064C,2026-07-01T13:53:39.050016,2.13101976,.00251635,65.2912,72.4865,252.1303,288.7676,0,U,37869,999,11407,0,-.13E-6,0
